NORAD_CAT_ID,OBJECT_NAME,OBJECT_TYPE,EPOCH,MEAN_MOTION,ECCENTRICITY,INCLINATION,RA_OF_ASC_NODE,ARG_OF_PERICENTER,MEAN_ANOMALY,BSTAR,MEAN_MOTION_DOT,MEAN_MOTION_DDOT,TLE_LINE0,TLE_LINE1,TLE_LINE2,SEMIMAJOR_AXIS,PERIOD,APOGEE,PERIGEE,DECAYED
50840.0,STARLINK-3295,PAYLOAD,2024-07-24 18:21:23,15.08835911,0.0001479,53.2167,320.866,68.7499,291.3651,-1.3401e-05,-5.01e-06,0.0,0 STARLINK-3295,1 50840U 22001AP  24206.76485409 -.00000501  00000-0 -13401-4 0  9990,2 50840  53.2167 320.8660 0001479  68.7499 291.3651 15.08835911142030,6917.893,95.438,540.781,538.735,0.0
50840.0,STARLINK-3295,PAYLOAD,2024-07-26 00:33:42,15.08844471,5.21e-05,53.2205,315.2179,88.0948,272.0104,7.9459e-05,9.77e-06,0.0,0 STARLINK-3295,1 50840U 22001AP  24208.02340565  .00000977  00000-0  79459-4 0  9994,2 50840  53.2205 315.2179 0000521  88.0948 272.0104 15.08844471142228,6917.867,95.437,540.092,539.371,0.0
50840.0,STARLINK-3295,PAYLOAD,2024-07-26 14:52:10,15.0884455,9.2e-05,53.2179,312.5401,90.1304,269.9794,7.7934e-05,9.53e-06,0.0,0 STARLINK-3295,1 50840U 22001AP  24208.61956518  .00000953  00000-0  77934-4 0  9990,2 50840  53.2179 312.5401 0000920  90.1304 269.9794 15.08844550141024,6917.866,95.437,540.368,539.095,0.0
50840.0,STARLINK-3295,PAYLOAD,2024-07-27 14:42:58,15.08835748,0.0001406,53.2179,308.079,91.0418,269.0735,-3.214e-06,-3.39e-06,0.0,0 STARLINK-3295,1 50840U 22001AP  24209.61317528 -.00000339  00000-0 -32140-5 0  9994,2 50840  53.2179 308.0790 0001406  91.0418 269.0735 15.08835748141172,6917.893,95.438,540.731,538.786,0.0
50840.0,STARLINK-3295,PAYLOAD,2024-07-28 00:15:16,15.08840249,0.0001449,53.2172,306.2968,87.9575,272.1583,2.6922e-05,1.41e-06,0.0,0 STARLINK-3295,1 50840U 22001AP  24210.01061154  .00000141  00000-0  26922-4 0  9990,2 50840  53.2172 306.2968 0001449  87.9575 272.1583 15.08840249142525,6917.88,95.438,540.747,538.742,0.0
50840.0,STARLINK-3295,PAYLOAD,2024-07-28 17:44:30,15.08851587,0.0001425,53.2171,303.026,84.5658,275.5497,0.00022221,3.251e-05,0.0,0 STARLINK-3295,1 50840U 22001AP  24210.73923756  .00003251  00000-0  22221-3 0  9996,2 50840  53.2171 303.0260 0001425  84.5658 275.5497 15.08851587142633,6917.845,95.437,540.696,538.724,0.0
50840.0,STARLINK-3295,PAYLOAD,2024-07-29 12:49:08,15.08841773,0.0001508,53.2177,299.4553,95.7783,264.3381,9.9291e-05,1.293e-05,0.0,0 STARLINK-3295,1 50840U 22001AP  24211.53412985  .00001293  00000-0  99291-4 0  9998,2 50840  53.2177 299.4553 0001508  95.7783 264.3381 15.08841773142754,6917.875,95.437,540.783,538.697,0.0
50840.0,STARLINK-3295,PAYLOAD,2024-07-29 22:21:28,15.08834543,0.0001918,53.2174,297.6699,96.3857,263.7353,2.6955e-05,1.41e-06,0.0,0 STARLINK-3295,1 50840U 22001AP  24211.93157712  .00000141  00000-0  26955-4 0  9994,2 50840  53.2174 297.6699 0001918  96.3857 263.7353 15.08834543141529,6917.897,95.438,541.089,538.435,0.0
50840.0,STARLINK-3295,PAYLOAD,2024-07-30 09:29:10,15.08835507,0.0001481,53.2181,295.5904,92.3935,267.7226,2.7142e-06,-2.45e-06,0.0,0 STARLINK-3295,1 50840U 22001AP  24212.39525755 -.00000245  00000-0  27142-5 0  9997,2 50840  53.2181 295.5904 0001481  92.3935 267.7226 15.08835507141592,6917.894,95.438,540.784,538.735,0.0
50840.0,STARLINK-3295,PAYLOAD,2024-07-30 22:12:14,15.08845324,0.0001372,53.2167,293.2128,91.7916,268.3233,-2.34e-05,-6.6e-06,0.0,0 STARLINK-3295,1 50840U 22001AP  24212.92517184 -.00000660  00000-0 -23400-4 0  9997,2 50840  53.2167 293.2128 0001372  91.7916 268.3233 15.08845324141672,6917.864,95.437,540.678,538.78,0.0
50840.0,STARLINK-3295,PAYLOAD,2024-07-31 14:06:06,15.08837129,0.0001479,53.2178,290.2408,104.5895,255.5261,3.0611e-05,1.99e-06,0.0,0 STARLINK-3295,1 50840U 22001AP  24213.58758022  .00000199  00000-0  30611-4 0  9995,2 50840  53.2178 290.2408 0001479 104.5895 255.5261 15.08837129141773,6917.889,95.438,540.777,538.731,0.0
50840.0,STARLINK-3295,PAYLOAD,2024-08-01 12:21:29,15.08855701,0.0001473,53.2166,286.0806,100.7545,259.3613,0.0003758,5.7e-05,0.0,0 STARLINK-3295,1 50840U 22001AP  24214.51492958  .00005700  00000-0  37580-3 0  9996,2 50840  53.2166 286.0806 0001473 100.7545 259.3613 15.08855701143208,6917.832,95.437,540.716,538.678,0.0
50840.0,STARLINK-3295,PAYLOAD,2024-08-01 21:53:49,15.0884577,0.0001541,53.217,284.2924,88.1412,271.9757,0.00023998,3.534e-05,0.0,0 STARLINK-3295,1 50840U 22001AP  24214.91237447  .00003534  00000-0  23998-3 0  9991,2 50840  53.2170 284.2924 0001541  88.1412 271.9757 15.08845770141978,6917.863,95.437,540.794,538.662,0.0
50840.0,STARLINK-3295,PAYLOAD,2024-08-02 13:47:39,15.08833982,0.0001415,53.2154,281.317,93.1432,266.9722,-0.00032722,-5.491e-05,0.0,0 STARLINK-3295,1 50840U 22001AP  24215.57476460 -.00005491  00000-0 -32722-3 0  9995,2 50840  53.2154 281.3170 0001415  93.1432 266.9722 15.08833982142079,6917.899,95.438,540.743,538.785,0.0
50840.0,STARLINK-3295,PAYLOAD,2024-08-02 21:44:35,15.0883041,0.0001438,53.2153,279.8288,86.8895,273.2262,-0.00050407,-8.299e-05,0.0,0 STARLINK-3295,1 50840U 22001AP  24215.90596433 -.00008299  00000-0 -50407-3 0  9994,2 50840  53.2153 279.8288 0001438  86.8895 273.2262 15.08830410142126,6917.91,95.438,540.769,538.78,0.0
50840.0,STARLINK-3295,PAYLOAD,2024-08-03 04:06:07,15.08827588,0.0001343,53.2146,278.6397,91.122,268.9926,-0.00051074,-8.404e-05,0.0,0 STARLINK-3295,1 50840U 22001AP  24216.17092589 -.00008404  00000-0 -51074-3 0  9996,2 50840  53.2146 278.6397 0001343  91.1220 268.9926 15.08827588143459,6917.918,95.438,540.712,538.854,0.0
50840.0,STARLINK-3295,PAYLOAD,2024-08-03 10:27:40,15.08832231,0.0001389,53.2141,277.4516,88.3398,271.7753,-0.00019972,-3.464e-05,0.0,0 STARLINK-3295,1 50840U 22001AP  24216.43588706 -.00003464  00000-0 -19972-3 0  9998,2 50840  53.2141 277.4516 0001389  88.3398 271.7753 15.08832231142201,6917.904,95.438,540.73,538.808,0.0
50840.0,STARLINK-3295,PAYLOAD,2024-08-03 21:35:22,15.08837714,0.0001473,53.214,275.3701,86.0646,274.0514,0.00030407,4.554e-05,0.0,0 STARLINK-3295,1 50840U 22001AP  24216.89957120  .00004554  00000-0  30407-3 0  9993,2 50840  53.2140 275.3701 0001473  86.0646 274.0514 15.08837714142277,6917.887,95.438,540.771,538.733,0.0
50840.0,STARLINK-3295,PAYLOAD,2024-08-04 10:18:28,15.08843352,0.0001545,53.2137,272.9906,88.5743,271.5426,0.0007364,0.00011452,0.0,0 STARLINK-3295,1 50840U 22001AP  24217.42949586  .00011452  00000-0  73640-3 0  9991,2 50840  53.2137 272.9906 0001545  88.5743 271.5426 15.08843352142356,6917.87,95.437,540.804,538.666,0.0
50840.0,STARLINK-3295,PAYLOAD,2024-08-05 03:47:42,15.08851848,0.0001613,53.2129,269.7192,88.4772,271.6405,0.00061525,9.52e-05,0.0,0 STARLINK-3295,1 50840U 22001AP  24218.15813389  .00009520  00000-0  61525-3 0  9995,2 50840  53.2129 269.7192 0001613  88.4772 271.6405 15.08851848143757,6917.844,95.437,540.825,538.593,0.0
50840.0,STARLINK-3295,PAYLOAD,2024-08-05 10:09:15,15.08852045,0.0001558,53.2147,268.5299,91.2343,268.8827,0.00044822,6.855e-05,0.0,0 STARLINK-3295,1 50840U 22001AP  24218.42309225  .00006855  00000-0  44822-3 0  9993,2 50840  53.2147 268.5299 0001558  91.2343 268.8827 15.08852045142504,6917.844,95.437,540.786,538.631,0.0
50840.0,STARLINK-3295,PAYLOAD,2024-08-06 03:38:30,15.08828974,0.000147,53.213,265.2584,85.1072,275.0088,-8.1071e-05,-1.578e-05,0.0,0 STARLINK-3295,1 50840U 22001AP  24219.15174166 -.00001578  00000-0 -81071-4 0  9995,2 50840  53.2130 265.2584 0001470  85.1072 275.0088 15.08828974143909,6917.914,95.438,540.796,538.762,0.0
50840.0,STARLINK-3295,PAYLOAD,2024-08-06 08:24:40,15.08825642,0.0001444,53.214,264.3654,98.1591,261.9565,-0.00014201,-2.546e-05,0.0,0 STARLINK-3295,1 50840U 22001AP  24219.35046499 -.00002546  00000-0 -14201-3 0  9990,2 50840  53.2140 264.3654 0001444  98.1591 261.9565 15.08825642142642,6917.924,95.438,540.788,538.79,0.0
50840.0,STARLINK-3295,PAYLOAD,2024-08-07 13:01:36,15.08843398,0.0001876,53.2139,259.012,121.4147,238.7029,0.00012891,1.764e-05,0.0,0 STARLINK-3295,1 50840U 22001AP  24220.54278065  .00001764  00000-0  12891-3 0  9991,2 50840  53.2139 259.0120 0001876 121.4147 238.7029 15.08843398144114,6917.87,95.437,541.033,538.437,0.0
50840.0,STARLINK-3295,PAYLOAD,2024-08-08 11:17:00,15.08848477,0.0001444,53.214,254.8492,97.9542,262.1614,0.00034565,5.219e-05,0.0,0 STARLINK-3295,1 50840U 22001AP  24221.47014128  .00005219  00000-0  34565-3 0  9993,2 50840  53.2140 254.8492 0001444  97.9542 262.1614 15.08848477142963,6917.854,95.437,540.718,538.721,0.0
50840.0,STARLINK-3295,PAYLOAD,2024-08-09 11:07:45,15.08884067,0.0001427,53.2133,250.3911,87.9154,272.2002,0.00082047,0.0001281,0.0,0 STARLINK-3295,1 50840U 22001AP  24222.46372514  .00012810  00000-0  82047-3 0  9992,2 50840  53.2133 250.3911 0001427  87.9154 272.2002 15.08884067144400,6917.746,95.435,540.598,538.624,0.0
50840.0,STARLINK-3295,PAYLOAD,2024-08-09 19:04:41,15.08881704,0.0001573,53.2132,248.9014,101.2837,258.8332,0.00067663,0.00010509,0.0,0 STARLINK-3295,1 50840U 22001AP  24222.79491917  .00010509  00000-0  67663-3 0  9997,2 50840  53.2132 248.9014 0001573 101.2837 258.8332 15.08881704144452,6917.753,95.435,540.706,538.53,0.0
50840.0,STARLINK-3295,PAYLOAD,2024-08-10 01:26:13,15.08865644,0.0001679,53.2146,247.7126,98.1608,261.9575,0.00028996,4.333e-05,0.0,0 STARLINK-3295,1 50840U 22001AP  24223.05988021  .00004333  00000-0  28996-3 0  9998,2 50840  53.2146 247.7126 0001679  98.1608 261.9575 15.08865644144498,6917.802,95.436,540.829,538.506,0.0
50840.0,STARLINK-3295,PAYLOAD,2024-08-10 10:58:33,15.08831821,0.0001612,53.215,245.9279,85.6571,274.4605,-0.00020877,-3.608e-05,0.0,0 STARLINK-3295,1 50840U 22001AP  24223.45733730 -.00003608  00000-0 -20877-3 0  9993,2 50840  53.2150 245.9279 0001612  85.6571 274.4605 15.08831821144559,6917.905,95.438,540.886,538.655,0.0
50840.0,STARLINK-3295,PAYLOAD,2024-08-11 07:38:34,15.08838702,0.0001508,53.215,242.0624,117.047,243.0676,-3.3984e-05,-8.29e-06,0.0,0 STARLINK-3295,1 50840U 22001AP  24224.31845640 -.00000829  00000-0 -33984-4 0  9999,2 50840  53.2150 242.0624 0001508 117.0470 243.0676 15.08838702144682,6917.884,95.438,540.793,538.706,0.0
